[
    {
        "Altitude(m)": 569876.399562528,
        "Argument of Periapsis(deg)": 0.019868973332140504,
        "Eccentricity": 0.0,
        "Inclination(deg)": 53.0,
        "Latitude(deg)": -48.159743844651835,
        "Longitude(deg)": -50.55421945860742,
        "Mean Anomaly(deg)": -111.5433213972672,
        "RAAN(deg)": 174.97043010558406,
        "Satellite Name": "Starlink Shell 1 783",
        "Satellite Number": 783,
        "Semi-Major Axis(m)": 6931778.249405717,
        "Time(s)": 570
    },
    {
        "Altitude(m)": 569985.3159459371,
        "Argument of Periapsis(deg)": 0.02021755181165174,
        "Eccentricity": 0.0,
        "Inclination(deg)": 53.0,
        "Latitude(deg)": -48.43000049036182,
        "Longitude(deg)": -49.75064703897658,
        "Mean Anomaly(deg)": -110.91649019371052,
        "RAAN(deg)": 174.96991133550657,
        "Satellite Name": "Starlink Shell 1 783",
        "Satellite Number": 783,
        "Semi-Major Axis(m)": 6931778.249405717,
        "Time(s)": 580
    },
    {
        "Altitude(m)": 570091.4918524629,
        "Argument of Periapsis(deg)": 0.020566130291162974,
        "Eccentricity": 0.0,
        "Inclination(deg)": 53.0,
        "Latitude(deg)": -48.693975007971176,
        "Longitude(deg)": -48.938191305671985,
        "Mean Anomaly(deg)": -110.28965899015382,
        "RAAN(deg)": 174.96939256542913,
        "Satellite Name": "Starlink Shell 1 783",
        "Satellite Number": 783,
        "Semi-Major Axis(m)": 6931778.249405717,
        "Time(s)": 590
    },
    {
        "Altitude(m)": 570194.8851501715,
        "Argument of Periapsis(deg)": 0.020914708770674213,
        "Eccentricity": 0.0,
        "Inclination(deg)": 53.0,
        "Latitude(deg)": -48.951544307920045,
        "Longitude(deg)": -48.11689064852056,
        "Mean Anomaly(deg)": -109.66282778659706,
        "RAAN(deg)": 174.96887379535164,
        "Satellite Name": "Starlink Shell 1 783",
        "Satellite Number": 783,
        "Semi-Major Axis(m)": 6931778.249405717,
        "Time(s)": 600
    },
    {
        "Altitude(m)": 570295.4547933992,
        "Argument of Periapsis(deg)": 0.021263287250185448,
        "Eccentricity": 0.0,
        "Inclination(deg)": 53.0,
        "Latitude(deg)": -49.20258525664787,
        "Longitude(deg)": -47.28679605458908,
        "Mean Anomaly(deg)": -109.03599658304039,
        "RAAN(deg)": 174.96835502527415,
        "Satellite Name": "Starlink Shell 1 783",
        "Satellite Number": 783,
        "Semi-Major Axis(m)": 6931778.249405717,
        "Time(s)": 610
    },
    {
        "Altitude(m)": 570393.1608406339,
        "Argument of Periapsis(deg)": 0.021611865729696686,
        "Eccentricity": 0.0,
        "Inclination(deg)": 53.0,
        "Latitude(deg)": -49.446974868961426,
        "Longitude(deg)": -46.44797110867732,
        "Mean Anomaly(deg)": -108.40916537948364,
        "RAAN(deg)": 174.9678362551967,
        "Satellite Name": "Starlink Shell 1 783",
        "Satellite Number": 783,
        "Semi-Major Axis(m)": 6931778.249405717,
        "Time(s)": 620
    },
    {
        "Altitude(m)": 570487.9644719436,
        "Argument of Periapsis(deg)": 0.02196044420920792,
        "Eccentricity": 0.0,
        "Inclination(deg)": 53.0,
        "Latitude(deg)": -49.68459051115616,
        "Longitude(deg)": -45.60049365380428,
        "Mean Anomaly(deg)": -107.78233417592693,
        "RAAN(deg)": 174.96731748511922,
        "Satellite Name": "Starlink Shell 1 783",
        "Satellite Number": 783,
        "Semi-Major Axis(m)": 6931778.249405717,
        "Time(s)": 630
    },
    {
        "Altitude(m)": 570579.8280058769,
        "Argument of Periapsis(deg)": 0.02230902268871916,
        "Eccentricity": 0.0,
        "Inclination(deg)": 53.0,
        "Latitude(deg)": -49.91531011463017,
        "Longitude(deg)": -44.74445490463817,
        "Mean Anomaly(deg)": -107.15550297237023,
        "RAAN(deg)": 174.96679871504173,
        "Satellite Name": "Starlink Shell 1 783",
        "Satellite Number": 783,
        "Semi-Major Axis(m)": 6931778.249405717,
        "Time(s)": 640
    },
    {
        "Altitude(m)": 570668.7149159086,
        "Argument of Periapsis(deg)": 0.022657601168230398,
        "Eccentricity": 0.0,
        "Inclination(deg)": 53.0,
        "Latitude(deg)": -50.13901239964098,
        "Longitude(deg)": -43.87996105199646,
        "Mean Anomaly(deg)": -106.52867176881347,
        "RAAN(deg)": 174.96627994496427,
        "Satellite Name": "Starlink Shell 1 783",
        "Satellite Number": 783,
        "Semi-Major Axis(m)": 6931778.249405717,
        "Time(s)": 650
    },
    {
        "Altitude(m)": 570754.5898462869,
        "Argument of Periapsis(deg)": 0.023006179647741636,
        "Eccentricity": 0.0,
        "Inclination(deg)": 53.0,
        "Latitude(deg)": -50.35557710874313,
        "Longitude(deg)": -43.00713315103583,
        "Mean Anomaly(deg)": -105.90184056525682,
        "RAAN(deg)": 174.9657611748868,
        "Satellite Name": "Starlink Shell 1 783",
        "Satellite Number": 783,
        "Semi-Major Axis(m)": 6931778.249405717,
        "Time(s)": 660
    },
    {
        "Altitude(m)": 570837.4186274717,
        "Argument of Periapsis(deg)": 0.023354758127252868,
        "Eccentricity": 0.0,
        "Inclination(deg)": 53.0,
        "Latitude(deg)": -50.56488524934231,
        "Longitude(deg)": -42.12610696906119,
        "Mean Anomaly(deg)": -105.27500936170004,
        "RAAN(deg)": 174.96524240480932,
        "Satellite Name": "Starlink Shell 1 783",
        "Satellite Number": 783,
        "Semi-Major Axis(m)": 6931778.249405717,
        "Time(s)": 670
    },
    {
        "Altitude(m)": 570917.1682909596,
        "Argument of Periapsis(deg)": 0.023703336606764106,
        "Eccentricity": 0.0,
        "Inclination(deg)": 53.0,
        "Latitude(deg)": -50.766819344690276,
        "Longitude(deg)": -41.23703430073662,
        "Mean Anomaly(deg)": -104.6481781581434,
        "RAAN(deg)": 174.96472363473185,
        "Satellite Name": "Starlink Shell 1 783",
        "Satellite Number": 783,
        "Semi-Major Axis(m)": 6931778.249405717,
        "Time(s)": 680
    },
    {
        "Altitude(m)": 570993.8070836345,
        "Argument of Periapsis(deg)": 0.024051915086275345,
        "Eccentricity": 0.0,
        "Inclination(deg)": 53.0,
        "Latitude(deg)": -50.961263692524405,
        "Longitude(deg)": -40.34008271985447,
        "Mean Anomaly(deg)": -104.02134695458669,
        "RAAN(deg)": 174.9642048646544,
        "Satellite Name": "Starlink Shell 1 783",
        "Satellite Number": 783,
        "Semi-Major Axis(m)": 6931778.249405717,
        "Time(s)": 690
    },
    {
        "Altitude(m)": 571067.3044815633,
        "Argument of Periapsis(deg)": 0.024400493565786583,
        "Eccentricity": 0.0,
        "Inclination(deg)": 53.0,
        "Latitude(deg)": -51.14810463044571,
        "Longitude(deg)": -39.43543527552564,
        "Mean Anomaly(deg)": -103.3945157510299,
        "RAAN(deg)": 174.9636860945769,
        "Satellite Name": "Starlink Shell 1 783",
        "Satellite Number": 783,
        "Semi-Major Axis(m)": 6931778.249405717,
        "Time(s)": 700
    },
    {
        "Altitude(m)": 571137.6312032603,
        "Argument of Periapsis(deg)": 0.024749072045297815,
        "Eccentricity": 0.0,
        "Inclination(deg)": 53.0,
        "Latitude(deg)": -51.32723080701259,
        "Longitude(deg)": -38.52329164078659,
        "Mean Anomaly(deg)": -102.76768454747321,
        "RAAN(deg)": 174.96316732449944,
        "Satellite Name": "Starlink Shell 1 783",
        "Satellite Number": 783,
        "Semi-Major Axis(m)": 6931778.249405717,
        "Time(s)": 710
    },
    {
        "Altitude(m)": 571204.7592223851,
        "Argument of Periapsis(deg)": 0.025097650524809053,
        "Eccentricity": 0.0,
        "Inclination(deg)": 53.0,
        "Latitude(deg)": -51.49853345740901,
        "Longitude(deg)": -37.60386768320623,
        "Mean Anomaly(deg)": -102.1408533439165,
        "RAAN(deg)": 174.96264855442197,
        "Satellite Name": "Starlink Shell 1 783",
        "Satellite Number": 783,
        "Semi-Major Axis(m)": 6931778.249405717,
        "Time(s)": 720
    },
    {
        "Altitude(m)": 571268.6617799215,
        "Argument of Periapsis(deg)": 0.02544622900432029,
        "Eccentricity": 0.0,
        "Inclination(deg)": 53.0,
        "Latitude(deg)": -51.66190668243905,
        "Longitude(deg)": -36.677394965995035,
        "Mean Anomaly(deg)": -101.51402214035977,
        "RAAN(deg)": 174.96212978434448,
        "Satellite Name": "Starlink Shell 1 783",
        "Satellite Number": 783,
        "Semi-Major Axis(m)": 6931778.249405717,
        "Time(s)": 730
    },
    {
        "Altitude(m)": 571329.3133957948,
        "Argument of Periapsis(deg)": 0.02579480748383153,
        "Eccentricity": 0.0,
        "Inclination(deg)": 53.0,
        "Latitude(deg)": -51.81724772949639,
        "Longitude(deg)": -35.74412168848191,
        "Mean Anomaly(deg)": -100.88719093680315,
        "RAAN(deg)": 174.96161101426702,
        "Satellite Name": "Starlink Shell 1 783",
        "Satellite Number": 783,
        "Semi-Major Axis(m)": 6931778.249405717,
        "Time(s)": 740
    },
    {
        "Altitude(m)": 571386.6898799151,
        "Argument of Periapsis(deg)": 0.026143385963342765,
        "Eccentricity": 0.0,
        "Inclination(deg)": 53.0,
        "Latitude(deg)": -51.964457274053096,
        "Longitude(deg)": -34.80431203664908,
        "Mean Anomaly(deg)": -100.26035973324632,
        "RAAN(deg)": 174.96109224418956,
        "Satellite Name": "Starlink Shell 1 783",
        "Satellite Number": 783,
        "Semi-Major Axis(m)": 6931778.249405717,
        "Time(s)": 750
    }
]